UNKNOWN                 
1 82741U          25349.04773630  .00002328  00000+0  25269-2 0  9995
2 82741 102.8456  25.2323 0203797 260.4132  97.3920 13.66037419597396
UNKNOWN                 
1 82783U          25349.08149440  .00000289  00000+0  82185-3 0  9996
2 82783  90.3402  38.2517 0025341 111.6840 248.6989 13.09020542504663
UNKNOWN                 
1 82798U          25338.38244633  .00004376  00000+0  19339-2 0  9994
2 82798  82.9514 198.4863 0028608 197.0141 339.5953 14.22853628311183
UNKNOWN                 
1 82820U          25349.39792182  .00002739  00000+0  96841-3 0  9995
2 82820  99.7869 150.4991 0048679   7.1415 353.0449 14.34953208626013
UNKNOWN                 
1 82854U          25344.95057948  .00003346  00000+0  26354-2 0  9999
2 82854  82.6889  66.0065 0127239 284.7232  73.9857 13.87785262607556
UNKNOWN                 
1 82873U          25347.66461340  .00004809  00000+0  20826-2 0  9999
2 82873  99.9976 241.9627 0039941 283.9826  75.6909 14.24431549621365
UNKNOWN                 
1 82875U          25344.21249229  .00001592  00000+0  42526-3 0  9997
2 82875  98.6710 327.6204 0377242 290.3778  65.7256 14.15145854544112
UNKNOWN                 
1 82893U          25349.26168139  .00005515  00000+0  20805-2 0  9991
2 82893  98.9623 104.4327 0022100  37.6130 322.6592 14.31644728424330
UNKNOWN                 
1 82912U          25347.25809000  .00005249  00000+0  21528-2 0  9996
2 82912  65.8353 173.0882 0776100 268.6168  82.5932 13.27692819579391
UNKNOWN                 
1 82961U          25345.70180436  .00013837  00000+0  22329-1 0  9994
2 82961  99.8939 140.2520 0380897   5.3797 355.1243 13.23265569555577
UNKNOWN                 
1 82965U          25341.16703301  .00001630  00000+0  22495-2 0  9999
2 82965 100.1169  60.5165 0002674 181.9708 178.1421 13.59984266523698
UNKNOWN                 
1 83903U          25348.86289704 -.00000139  00000+0  00000+0 0  9991
2 83903   6.1796 290.6015 0123966 251.6399 306.2903  0.99111640 43684
