CCSDS_OMM_VERS = 2.0
CREATION_DATE  = 
ORIGINATOR     = 

OBJECT_NAME    = UNKNOWN
OBJECT_ID      = 
CENTER_NAME    = EARTH
REF_FRAME      = TEME
TIME_SYSTEM    = UTC
MEAN_ELEMENT_THEORY = SGP/SGP4

EPOCH          = 2025-12-15T01:08:44.416320
MEAN_MOTION    = 13.66037419
ECCENTRICITY   = .0203797
INCLINATION    = 102.8456
RA_OF_ASC_NODE = 25.2323
ARG_OF_PERICENTER = 260.4132
MEAN_ANOMALY   = 97.3920

EPHEMERIS_TYPE = 0
CLASSIFICATION_TYPE = U
NORAD_CAT_ID   = 82741
ELEMENT_SET_NO = 999
REV_AT_EPOCH   = 59739
BSTAR          = .25269E-2
MEAN_MOTION_DOT = .2328E-4
MEAN_MOTION_DDOT = 0

CCSDS_OMM_VERS = 2.0
CREATION_DATE  = 
ORIGINATOR     = 

OBJECT_NAME    = UNKNOWN
OBJECT_ID      = 
CENTER_NAME    = EARTH
REF_FRAME      = TEME
TIME_SYSTEM    = UTC
MEAN_ELEMENT_THEORY = SGP/SGP4

EPOCH          = 2025-12-15T01:57:21.116160
MEAN_MOTION    = 13.09020542
ECCENTRICITY   = .0025341
INCLINATION    = 90.3402
RA_OF_ASC_NODE = 38.2517
ARG_OF_PERICENTER = 111.6840
MEAN_ANOMALY   = 248.6989

EPHEMERIS_TYPE = 0
CLASSIFICATION_TYPE = U
NORAD_CAT_ID   = 82783
ELEMENT_SET_NO = 999
REV_AT_EPOCH   = 50466
BSTAR          = .82185E-3
MEAN_MOTION_DOT = .289E-5
MEAN_MOTION_DDOT = 0

CCSDS_OMM_VERS = 2.0
CREATION_DATE  = 
ORIGINATOR     = 

OBJECT_NAME    = UNKNOWN
OBJECT_ID      = 
CENTER_NAME    = EARTH
REF_FRAME      = TEME
TIME_SYSTEM    = UTC
MEAN_ELEMENT_THEORY = SGP/SGP4

EPOCH          = 2025-12-04T09:10:43.362912
MEAN_MOTION    = 14.22853628
ECCENTRICITY   = .0028608
INCLINATION    = 82.9514
RA_OF_ASC_NODE = 198.4863
ARG_OF_PERICENTER = 197.0141
MEAN_ANOMALY   = 339.5953

EPHEMERIS_TYPE = 0
CLASSIFICATION_TYPE = U
NORAD_CAT_ID   = 82798
ELEMENT_SET_NO = 999
REV_AT_EPOCH   = 31118
BSTAR          = .19339E-2
MEAN_MOTION_DOT = .4376E-4
MEAN_MOTION_DDOT = 0

CCSDS_OMM_VERS = 2.0
CREATION_DATE  = 
ORIGINATOR     = 

OBJECT_NAME    = UNKNOWN
OBJECT_ID      = 
CENTER_NAME    = EARTH
REF_FRAME      = TEME
TIME_SYSTEM    = UTC
MEAN_ELEMENT_THEORY = SGP/SGP4

EPOCH          = 2025-12-15T09:33:00.445248
MEAN_MOTION    = 14.34953208
ECCENTRICITY   = .0048679
INCLINATION    = 99.7869
RA_OF_ASC_NODE = 150.4991
ARG_OF_PERICENTER = 7.1415
MEAN_ANOMALY   = 353.0449

EPHEMERIS_TYPE = 0
CLASSIFICATION_TYPE = U
NORAD_CAT_ID   = 82820
ELEMENT_SET_NO = 999
REV_AT_EPOCH   = 62601
BSTAR          = .96841E-3
MEAN_MOTION_DOT = .2739E-4
MEAN_MOTION_DDOT = 0

CCSDS_OMM_VERS = 2.0
CREATION_DATE  = 
ORIGINATOR     = 

OBJECT_NAME    = UNKNOWN
OBJECT_ID      = 
CENTER_NAME    = EARTH
REF_FRAME      = TEME
TIME_SYSTEM    = UTC
MEAN_ELEMENT_THEORY = SGP/SGP4

EPOCH          = 2025-12-10T22:48:50.067072
MEAN_MOTION    = 13.87785262
ECCENTRICITY   = .0127239
INCLINATION    = 82.6889
RA_OF_ASC_NODE = 66.0065
ARG_OF_PERICENTER = 284.7232
MEAN_ANOMALY   = 73.9857

EPHEMERIS_TYPE = 0
CLASSIFICATION_TYPE = U
NORAD_CAT_ID   = 82854
ELEMENT_SET_NO = 999
REV_AT_EPOCH   = 60755
BSTAR          = .26354E-2
MEAN_MOTION_DOT = .3346E-4
MEAN_MOTION_DDOT = 0

CCSDS_OMM_VERS = 2.0
CREATION_DATE  = 
ORIGINATOR     = 

OBJECT_NAME    = UNKNOWN
OBJECT_ID      = 
CENTER_NAME    = EARTH
REF_FRAME      = TEME
TIME_SYSTEM    = UTC
MEAN_ELEMENT_THEORY = SGP/SGP4

EPOCH          = 2025-12-13T15:57:02.597760
MEAN_MOTION    = 14.24431549
ECCENTRICITY   = .0039941
INCLINATION    = 99.9976
RA_OF_ASC_NODE = 241.9627
ARG_OF_PERICENTER = 283.9826
MEAN_ANOMALY   = 75.6909

EPHEMERIS_TYPE = 0
CLASSIFICATION_TYPE = U
NORAD_CAT_ID   = 82873
ELEMENT_SET_NO = 999
REV_AT_EPOCH   = 62136
BSTAR          = .20826E-2
MEAN_MOTION_DOT = .4809E-4
MEAN_MOTION_DDOT = 0

CCSDS_OMM_VERS = 2.0
CREATION_DATE  = 
ORIGINATOR     = 

OBJECT_NAME    = UNKNOWN
OBJECT_ID      = 
CENTER_NAME    = EARTH
REF_FRAME      = TEME
TIME_SYSTEM    = UTC
MEAN_ELEMENT_THEORY = SGP/SGP4

EPOCH          = 2025-12-10T05:05:59.333856
MEAN_MOTION    = 14.15145854
ECCENTRICITY   = .0377242
INCLINATION    = 98.6710
RA_OF_ASC_NODE = 327.6204
ARG_OF_PERICENTER = 290.3778
MEAN_ANOMALY   = 65.7256

EPHEMERIS_TYPE = 0
CLASSIFICATION_TYPE = U
NORAD_CAT_ID   = 82875
ELEMENT_SET_NO = 999
REV_AT_EPOCH   = 54411
BSTAR          = .42526E-3
MEAN_MOTION_DOT = .1592E-4
MEAN_MOTION_DDOT = 0

CCSDS_OMM_VERS = 2.0
CREATION_DATE  = 
ORIGINATOR     = 

OBJECT_NAME    = UNKNOWN
OBJECT_ID      = 
CENTER_NAME    = EARTH
REF_FRAME      = TEME
TIME_SYSTEM    = UTC
MEAN_ELEMENT_THEORY = SGP/SGP4

EPOCH          = 2025-12-15T06:16:49.272096
MEAN_MOTION    = 14.31644728
ECCENTRICITY   = .00221
INCLINATION    = 98.9623
RA_OF_ASC_NODE = 104.4327
ARG_OF_PERICENTER = 37.6130
MEAN_ANOMALY   = 322.6592

EPHEMERIS_TYPE = 0
CLASSIFICATION_TYPE = U
NORAD_CAT_ID   = 82893
ELEMENT_SET_NO = 999
REV_AT_EPOCH   = 42433
BSTAR          = .20805E-2
MEAN_MOTION_DOT = .5515E-4
MEAN_MOTION_DDOT = 0

CCSDS_OMM_VERS = 2.0
CREATION_DATE  = 
ORIGINATOR     = 

OBJECT_NAME    = UNKNOWN
OBJECT_ID      = 
CENTER_NAME    = EARTH
REF_FRAME      = TEME
TIME_SYSTEM    = UTC
MEAN_ELEMENT_THEORY = SGP/SGP4

EPOCH          = 2025-12-13T06:11:38.976000
MEAN_MOTION    = 13.27692819
ECCENTRICITY   = .07761
INCLINATION    = 65.8353
RA_OF_ASC_NODE = 173.0882
ARG_OF_PERICENTER = 268.6168
MEAN_ANOMALY   = 82.5932

EPHEMERIS_TYPE = 0
CLASSIFICATION_TYPE = U
NORAD_CAT_ID   = 82912
ELEMENT_SET_NO = 999
REV_AT_EPOCH   = 57939
BSTAR          = .21528E-2
MEAN_MOTION_DOT = .5249E-4
MEAN_MOTION_DDOT = 0

CCSDS_OMM_VERS = 2.0
CREATION_DATE  = 
ORIGINATOR     = 

OBJECT_NAME    = UNKNOWN
OBJECT_ID      = 
CENTER_NAME    = EARTH
REF_FRAME      = TEME
TIME_SYSTEM    = UTC
MEAN_ELEMENT_THEORY = SGP/SGP4

EPOCH          = 2025-12-11T16:50:35.896704
MEAN_MOTION    = 13.23265569
ECCENTRICITY   = .0380897
INCLINATION    = 99.8939
RA_OF_ASC_NODE = 140.2520
ARG_OF_PERICENTER = 5.3797
MEAN_ANOMALY   = 355.1243

EPHEMERIS_TYPE = 0
CLASSIFICATION_TYPE = U
NORAD_CAT_ID   = 82961
ELEMENT_SET_NO = 999
REV_AT_EPOCH   = 55557
BSTAR          = .22329E-1
MEAN_MOTION_DOT = .13837E-3
MEAN_MOTION_DDOT = 0

CCSDS_OMM_VERS = 2.0
CREATION_DATE  = 
ORIGINATOR     = 

OBJECT_NAME    = UNKNOWN
OBJECT_ID      = 
CENTER_NAME    = EARTH
REF_FRAME      = TEME
TIME_SYSTEM    = UTC
MEAN_ELEMENT_THEORY = SGP/SGP4

EPOCH          = 2025-12-07T04:00:31.652064
MEAN_MOTION    = 13.59984266
ECCENTRICITY   = .0002674
INCLINATION    = 100.1169
RA_OF_ASC_NODE = 60.5165
ARG_OF_PERICENTER = 181.9708
MEAN_ANOMALY   = 178.1421

EPHEMERIS_TYPE = 0
CLASSIFICATION_TYPE = U
NORAD_CAT_ID   = 82965
ELEMENT_SET_NO = 999
REV_AT_EPOCH   = 52369
BSTAR          = .22495E-2
MEAN_MOTION_DOT = .163E-4
MEAN_MOTION_DDOT = 0

CCSDS_OMM_VERS = 2.0
CREATION_DATE  = 
ORIGINATOR     = 

OBJECT_NAME    = UNKNOWN
OBJECT_ID      = 
CENTER_NAME    = EARTH
REF_FRAME      = TEME
TIME_SYSTEM    = UTC
MEAN_ELEMENT_THEORY = SGP/SGP4

EPOCH          = 2025-12-14T20:42:34.304256
MEAN_MOTION    = 0.99111640
ECCENTRICITY   = .0123966
INCLINATION    = 6.1796
RA_OF_ASC_NODE = 290.6015
ARG_OF_PERICENTER = 251.6399
MEAN_ANOMALY   = 306.2903

EPHEMERIS_TYPE = 0
CLASSIFICATION_TYPE = U
NORAD_CAT_ID   = 83903
ELEMENT_SET_NO = 999
REV_AT_EPOCH   = 4368
BSTAR          = 0
MEAN_MOTION_DOT = -.139E-5
MEAN_MOTION_DDOT = 0

